HODOYOSHI-4             
1 40011U 14033B   26177.17867162  .00000870  00000+0  99770-4 0  9998
2 40011  97.5456   1.5671 0022142 276.8346  83.0353 14.88143934650144
DEIMOS-2                
1 40013U 14033D   26177.22650740  .00001097  00000+0  10868-3 0  9990
2 40013  97.5830  51.3978 0001307  53.6740 306.4600 14.93749309639074
HODOYOSHI-3             
1 40015U 14033F   26177.00961441  .00000998  00000+0  12104-3 0  9995
2 40015  97.6424 339.6953 0031946 327.7644  32.1618 14.85405053648934
SPOT 7                  
1 40053U 14034A   26177.15362056  .00000441  00000+0  99155-4 0  9996
2 40053  98.0629 239.4143 0001347  95.2520 264.8834 14.60965380638444
SKYSAT-B                
1 40072U 14037D   26176.86676874  .00001201  00000+0  13738-3 0  9990
2 40072  98.3841 136.3265 0004236 243.9459 116.1320 14.88047756647253
WORLDVIEW-3 (WV-3)      
1 40115U 14048A   26177.19629051  .00000817  00000+0  10191-3 0  9994
2 40115  97.8564 251.9048 0000256  18.9595 341.1629 14.85035558643240
GAOFEN-2                
1 40118U 14049A   26177.16282566  .00000736  00000+0  10216-3 0  9999
2 40118  98.0110 241.3616 0006714 193.6283 166.4749 14.80908244640566
YAOGAN-21               
1 40143U 14053A   26177.20915042  .00008354  00000+0  32223-3 0  9995
2 40143  97.1474 217.0577 0009702  67.6710 292.5556 15.26500087656331
YAOGAN-22               
1 40275U 14063A   26177.15971296 -.00000032  00000+0  40509-4 0  9992
2 40275 100.7734 328.5823 0006544 165.4830 194.6470 13.15531151560995
ASNARO                  
1 40298U 14070A   26177.18124304  .00007429  00000+0  35222-3 0  9999
2 40298  97.3452 253.0521 0006374 138.1332 222.0392 15.19558189645371
YAOGAN-24               
1 40310U 14072A   26177.16485781  .00000581  00000+0  91800-4 0  9990
2 40310  98.1495 314.5792 0013274 233.1782 126.8210 14.76095740625040
CBERS 4                 
1 40336U 14079A   26177.16816019  .00000052  00000+0  32620-4 0  9995
2 40336  98.3531 233.7180 0001568  54.9017 305.2316 14.35511111605247
YAOGAN-26               
1 40362U 14088A   26177.18632588  .00036273  00000+0  70026-3 0  9998
2 40362  97.0643 177.1855 0004930  45.4026 314.7626 15.47711556639095
SMAP                    
1 40376U 15003A   26177.17392602  .00000423  00000+0  90853-4 0  9999
2 40376  98.1276 184.1411 0001423  98.7452 261.3911 14.63373882608934
KOMPSAT-3A              
1 40536U 15014A   26177.19135809  .00030448  00000+0  43229-3 0  9999
2 40536  97.6883 169.2137 0057146 142.3322 218.1954 15.54415159623214
SENTINEL-2A             
1 40697U 15028A   26177.16574655  .00000193  00000+0  90275-4 0  9993
2 40697  98.5684 251.8900 0001160  92.8451 267.2864 14.30818069575013
GAOFEN-8                
1 40701U 15030A   26177.21344610  .00013589  00000+0  27753-3 0  9997
2 40701  97.6906  11.1274 0009419 155.5240 204.6457 15.46257408612843
CARBONITE 1 (CBNT-1)    
1 40718U 15032D   26177.22015976  .00001015  00000+0  12907-3 0  9994
2 40718  97.6512 354.9082 0012908 265.2669  94.7072 14.83609797590680
YAOGAN-27               
1 40878U 15040A   26177.22707909  .00000327  00000+0  97365-3 0  9990
2 40878 100.1154 163.2174 0007929 188.4668 171.6313 13.16072313518859
GAOFEN-9 01             
1 40894U 15047A   26177.23951279  .00000983  00000+0  12668-3 0  9998
2 40894  97.6271 212.5228 0028829 109.4753 250.9580 14.82900162581533
YAOGAN-28               
1 41026U 15064A   26177.16660972  .00006942  00000+0  26005-3 0  9995
2 41026  97.3079 315.2460 0011401 152.8183 207.3655 15.27527332592052
YAOGAN-29               
1 41038U 15069A   26177.21851632 -.00000090  00000+0 -44586-5 0  9990
2 41038  98.0029 205.8654 0002134  39.2284 320.9083 14.83089687571961
KENT RIDGE 1            
1 41167U 15077B   26177.20033369  .00004089  00000+0  13641-3 0  9996
2 41167  14.9781 198.9550 0008187   5.7751 354.2665 15.23181106582472
GAOFEN-4                
1 41194U 15083A   26176.90227766 -.00000324  00000+0  00000+0 0  9995
2 41194   0.3805  83.9226 0004051 113.8387 146.7998  1.00271078 38616
JASON-3                 
1 41240U 16002A   26177.01244624 -.00000076  00000+0 -53183-4 0  9994
2 41240  66.0414 107.2818 0008418 272.3355  87.6700 12.87556148488385
SENTINEL-3A             
1 41335U 16011A   26177.19319132  .00000094  00000+0  56795-4 0  9995
2 41335  98.6246 244.4474 0001432  97.1017 263.0326 14.26734963539348
ZIYUAN 3-02 (ZY 3-02)   
1 41556U 16033A   26177.20123148  .00005761  00000+0  26041-3 0  9992
2 41556  97.3838 252.8021 0012452 255.9364 104.0488 15.21260093559350
CARTOSAT-2C             
1 41599U 16040A   26177.14992451  .00005959  00000+0  28549-3 0  9995
2 41599  97.4488 237.0043 0010518 103.9834 256.2571 15.19259995555077
SKYSAT-C1               
1 41601U 16040C   26177.00907459  .00010408  00000+0  29478-3 0  9995
2 41601  96.9565 208.2510 0002629  39.9712 320.1726 15.36441709559226
LAPAN-A3                
1 41603U 16040E   26177.19819840  .00004140  00000+0  13144-3 0  9992
2 41603  97.1488 173.0476 0009722 354.4370   5.6763 15.33159955556196
GAOFEN-3                
1 41727U 16049A   26177.17249546 -.00000099  00000+0 -16861-4 0  9997
2 41727  98.4013 184.8228 0001578  97.1676 262.9693 14.42215930519944
