OBJECT_NAME,OBJECT_ID,EPOCH,MEAN_MOTION,ECCENTRICITY,INCLINATION,RA_OF_ASC_NODE,ARG_OF_PERICENTER,MEAN_ANOMALY,EPHEMERIS_TYPE,CLASSIFICATION_TYPE,NORAD_CAT_ID,ELEMENT_SET_NO,REV_AT_EPOCH,BSTAR,MEAN_MOTION_DOT,MEAN_MOTION_DDOT
HODOYOSHI-4,2014-033B,2026-06-26T04:17:17.227968,14.88143934,.0022142,97.5456,1.5671,276.8346,83.0353,0,U,40011,999,65014,.9977E-4,.87E-5,0
DEIMOS-2,2014-033D,2026-06-26T05:26:10.239360,14.93749309,.0001307,97.5830,51.3978,53.6740,306.4600,0,U,40013,999,63907,.10868E-3,.1097E-4,0
HODOYOSHI-3,2014-033F,2026-06-26T00:13:50.685024,14.85405053,.0031946,97.6424,339.6953,327.7644,32.1618,0,U,40015,999,64893,.12104E-3,.998E-5,0
SPOT 7,2014-034A,2026-06-26T03:41:12.816384,14.60965380,.0001347,98.0629,239.4143,95.2520,264.8834,0,U,40053,999,63844,.99155E-4,.441E-5,0
SKYSAT-B,2014-037D,2026-06-25T20:48:08.819136,14.88047756,.0004236,98.3841,136.3265,243.9459,116.1320,0,U,40072,999,64725,.13738E-3,.1201E-4,0
WORLDVIEW-3 (WV-3),2014-048A,2026-06-26T04:42:39.500064,14.85035558,.0000256,97.8564,251.9048,18.9595,341.1629,0,U,40115,999,64324,.10191E-3,.817E-5,0
GAOFEN-2,2014-049A,2026-06-26T03:54:28.137024,14.80908244,.0006714,98.0110,241.3616,193.6283,166.4749,0,U,40118,999,64056,.10216E-3,.736E-5,0
YAOGAN-21,2014-053A,2026-06-26T05:01:10.596288,15.26500087,.0009702,97.1474,217.0577,67.6710,292.5556,0,U,40143,999,65633,.32223E-3,.8354E-4,0
YAOGAN-22,2014-063A,2026-06-26T03:49:59.199744,13.15531151,.0006544,100.7734,328.5823,165.4830,194.6470,0,U,40275,999,56099,.40509E-4,-.32E-6,0
ASNARO,2014-070A,2026-06-26T04:20:59.398656,15.19558189,.0006374,97.3452,253.0521,138.1332,222.0392,0,U,40298,999,64537,.35222E-3,.7429E-4,0
YAOGAN-24,2014-072A,2026-06-26T03:57:23.714784,14.76095740,.0013274,98.1495,314.5792,233.1782,126.8210,0,U,40310,999,62504,.918E-4,.581E-5,0
CBERS 4,2014-079A,2026-06-26T04:02:09.040416,14.35511111,.0001568,98.3531,233.7180,54.9017,305.2316,0,U,40336,999,60524,.3262E-4,.52E-6,0
YAOGAN-26,2014-088A,2026-06-26T04:28:18.556032,15.47711556,.000493,97.0643,177.1855,45.4026,314.7626,0,U,40362,999,63909,.70026E-3,.36273E-3,0
SMAP,2015-003A,2026-06-26T04:10:27.208128,14.63373882,.0001423,98.1276,184.1411,98.7452,261.3911,0,U,40376,999,60893,.90853E-4,.423E-5,0
KOMPSAT-3A,2015-014A,2026-06-26T04:35:33.338976,15.54415159,.0057146,97.6883,169.2137,142.3322,218.1954,0,U,40536,999,62321,.43229E-3,.30448E-3,0
SENTINEL-2A,2015-028A,2026-06-26T03:58:40.501920,14.30818069,.000116,98.5684,251.8900,92.8451,267.2864,0,U,40697,999,57501,.90275E-4,.193E-5,0
GAOFEN-8,2015-030A,2026-06-26T05:07:21.743040,15.46257408,.0009419,97.6906,11.1274,155.5240,204.6457,0,U,40701,999,61284,.27753E-3,.13589E-3,0
CARBONITE 1 (CBNT-1),2015-032D,2026-06-26T05:17:01.803264,14.83609797,.0012908,97.6512,354.9082,265.2669,94.7072,0,U,40718,999,59068,.12907E-3,.1015E-4,0
YAOGAN-27,2015-040A,2026-06-26T05:26:59.633376,13.16072313,.0007929,100.1154,163.2174,188.4668,171.6313,0,U,40878,999,51885,.97365E-3,.327E-5,0
GAOFEN-9 01,2015-047A,2026-06-26T05:44:53.905056,14.82900162,.0028829,97.6271,212.5228,109.4753,250.9580,0,U,40894,999,58153,.12668E-3,.983E-5,0
YAOGAN-28,2015-064A,2026-06-26T03:59:55.079808,15.27527332,.0011401,97.3079,315.2460,152.8183,207.3655,0,U,41026,999,59205,.26005E-3,.6942E-4,0
YAOGAN-29,2015-069A,2026-06-26T05:14:39.810048,14.83089687,.0002134,98.0029,205.8654,39.2284,320.9083,0,U,41038,999,57196,-.44586E-5,-.9E-6,0
KENT RIDGE 1,2015-077B,2026-06-26T04:48:28.830816,15.23181106,.0008187,14.9781,198.9550,5.7751,354.2665,0,U,41167,999,58247,.13641E-3,.4089E-4,0
GAOFEN-4,2015-083A,2026-06-25T21:39:16.789824,1.00271078,.0004051,0.3805,83.9226,113.8387,146.7998,0,U,41194,999,3861,0,-.324E-5,0
JASON-3,2016-002A,2026-06-26T00:17:55.355136,12.87556148,.0008418,66.0414,107.2818,272.3355,87.6700,0,U,41240,999,48838,-.53183E-4,-.76E-6,0
SENTINEL-3A,2016-011A,2026-06-26T04:38:11.730048,14.26734963,.0001432,98.6246,244.4474,97.1017,263.0326,0,U,41335,999,53934,.56795E-4,.94E-6,0
ZIYUAN 3-02 (ZY 3-02),2016-033A,2026-06-26T04:49:46.399872,15.21260093,.0012452,97.3838,252.8021,255.9364,104.0488,0,U,41556,999,55935,.26041E-3,.5761E-4,0
CARTOSAT-2C,2016-040A,2026-06-26T03:35:53.477664,15.19259995,.0010518,97.4488,237.0043,103.9834,256.2571,0,U,41599,999,55507,.28549E-3,.5959E-4,0
SKYSAT-C1,2016-040C,2026-06-26T00:13:04.044576,15.36441709,.0002629,96.9565,208.2510,39.9712,320.1726,0,U,41601,999,55922,.29478E-3,.10408E-3,0
LAPAN-A3,2016-040E,2026-06-26T04:45:24.341760,15.33159955,.0009722,97.1488,173.0476,354.4370,5.6763,0,U,41603,999,55619,.13144E-3,.414E-4,0
GAOFEN-3,2016-049A,2026-06-26T04:08:23.607744,14.42215930,.0001578,98.4013,184.8228,97.1676,262.9693,0,U,41727,999,51994,-.16861E-4,-.99E-6,0
